<?xml version="1.0" encoding="UTF-8"?>
<kml xmlns="http://opengis.net">
  <Document>
    <name>MH370 Shattered Debris Field Scatter Matrix</name>
    <Style id="neon_target">
      <IconStyle>
        <color>ff00ff00</color> <!-- Neon green target crosshairs -->
        <scale>1.3</scale>
        <Icon>
          <href>http://google.com</href>
        </Icon>
      </IconStyle>
    </Style>
    <Placemark>
      <name>Fragment #01</name>
      <description><![CDATA[
        <b>Classification:</b> DEBRIS PROFILE: SCATTERED SHEET FRAGMENT<br/>
        <b>Intensity:</b> 76.9% Reflection
      ]]></description>
      <styleUrl>#neon_target</styleUrl>
      <Point>
        <altitudeMode>relativeToSeafloor</altitudeMode>
        <coordinates>92.94348,-32.99564,-5020</coordinates>
      </Point>
    </Placemark>
    <Placemark>
      <name>Fragment #02</name>
      <description><![CDATA[
        <b>Classification:</b> STRUCTURAL TARGET: FRACTURED AIRFRAME SECTION<br/>
        <b>Intensity:</b> 83.3% Reflection
      ]]></description>
      <styleUrl>#neon_target</styleUrl>
      <Point>
        <altitudeMode>relativeToSeafloor</altitudeMode>
        <coordinates>92.9494,-32.98832,-5020</coordinates>
      </Point>
    </Placemark>
    <Placemark>
      <name>Fragment #03</name>
      <description><![CDATA[
        <b>Classification:</b> STRUCTURAL TARGET: FRACTURED AIRFRAME SECTION<br/>
        <b>Intensity:</b> 82.0% Reflection
      ]]></description>
      <styleUrl>#neon_target</styleUrl>
      <Point>
        <altitudeMode>relativeToSeafloor</altitudeMode>
        <coordinates>92.95402,-32.99039,-5020</coordinates>
      </Point>
    </Placemark>
    <Placemark>
      <name>Fragment #04</name>
      <description><![CDATA[
        <b>Classification:</b> STRUCTURAL TARGET: FRACTURED AIRFRAME SECTION<br/>
        <b>Intensity:</b> 87.5% Reflection
      ]]></description>
      <styleUrl>#neon_target</styleUrl>
      <Point>
        <altitudeMode>relativeToSeafloor</altitudeMode>
        <coordinates>92.95122,-32.98616,-5020</coordinates>
      </Point>
    </Placemark>
    <Placemark>
      <name>Fragment #05</name>
      <description><![CDATA[
        <b>Classification:</b> CRITICAL TARGET: HEAVY METALLIC CORE ANOMALY<br/>
        <b>Intensity:</b> 90.0% Reflection
      ]]></description>
      <styleUrl>#neon_target</styleUrl>
      <Point>
        <altitudeMode>relativeToSeafloor</altitudeMode>
        <coordinates>92.95821,-32.98245,-5020</coordinates>
      </Point>
    </Placemark>
    <Placemark>
      <name>Fragment #06</name>
      <description><![CDATA[
        <b>Classification:</b> STRUCTURAL TARGET: FRACTURED AIRFRAME SECTION<br/>
        <b>Intensity:</b> 82.9% Reflection
      ]]></description>
      <styleUrl>#neon_target</styleUrl>
      <Point>
        <altitudeMode>relativeToSeafloor</altitudeMode>
        <coordinates>92.94447,-32.98688,-5020</coordinates>
      </Point>
    </Placemark>
    <Placemark>
      <name>Fragment #07</name>
      <description><![CDATA[
        <b>Classification:</b> DEBRIS PROFILE: SCATTERED SHEET FRAGMENT<br/>
        <b>Intensity:</b> 81.9% Reflection
      ]]></description>
      <styleUrl>#neon_target</styleUrl>
      <Point>
        <altitudeMode>relativeToSeafloor</altitudeMode>
        <coordinates>92.95541,-32.98426,-5020</coordinates>
      </Point>
    </Placemark>
    <Placemark>
      <name>Fragment #08</name>
      <description><![CDATA[
        <b>Classification:</b> DEBRIS PROFILE: SCATTERED SHEET FRAGMENT<br/>
        <b>Intensity:</b> 79.4% Reflection
      ]]></description>
      <styleUrl>#neon_target</styleUrl>
      <Point>
        <altitudeMode>relativeToSeafloor</altitudeMode>
        <coordinates>92.94821,-32.98261,-5020</coordinates>
      </Point>
    </Placemark>
    <Placemark>
      <name>Fragment #09</name>
      <description><![CDATA[
        <b>Classification:</b> CRITICAL TARGET: HEAVY METALLIC CORE ANOMALY<br/>
        <b>Intensity:</b> 93.3% Reflection
      ]]></description>
      <styleUrl>#neon_target</styleUrl>
      <Point>
        <altitudeMode>relativeToSeafloor</altitudeMode>
        <coordinates>92.9568,-32.98248,-5020</coordinates>
      </Point>
    </Placemark>
    <Placemark>
      <name>Fragment #10</name>
      <description><![CDATA[
        <b>Classification:</b> DEBRIS PROFILE: SCATTERED SHEET FRAGMENT<br/>
        <b>Intensity:</b> 77.8% Reflection
      ]]></description>
      <styleUrl>#neon_target</styleUrl>
      <Point>
        <altitudeMode>relativeToSeafloor</altitudeMode>
        <coordinates>92.96454,-32.97844,-5020</coordinates>
      </Point>
    </Placemark>
    <Placemark>
      <name>Fragment #11</name>
      <description><![CDATA[
        <b>Classification:</b> STRUCTURAL TARGET: FRACTURED AIRFRAME SECTION<br/>
        <b>Intensity:</b> 87.7% Reflection
      ]]></description>
      <styleUrl>#neon_target</styleUrl>
      <Point>
        <altitudeMode>relativeToSeafloor</altitudeMode>
        <coordinates>92.95631,-32.98107,-5020</coordinates>
      </Point>
    </Placemark>
    <Placemark>
      <name>Fragment #12</name>
      <description><![CDATA[
        <b>Classification:</b> CRITICAL TARGET: HEAVY METALLIC CORE ANOMALY<br/>
        <b>Intensity:</b> 90.2% Reflection
      ]]></description>
      <styleUrl>#neon_target</styleUrl>
      <Point>
        <altitudeMode>relativeToSeafloor</altitudeMode>
        <coordinates>92.96154,-32.98391,-5020</coordinates>
      </Point>
    </Placemark>
    <Placemark>
      <name>Fragment #13</name>
      <description><![CDATA[
        <b>Classification:</b> STRUCTURAL TARGET: FRACTURED AIRFRAME SECTION<br/>
        <b>Intensity:</b> 82.3% Reflection
      ]]></description>
      <styleUrl>#neon_target</styleUrl>
      <Point>
        <altitudeMode>relativeToSeafloor</altitudeMode>
        <coordinates>92.96389,-32.96976,-5020</coordinates>
      </Point>
    </Placemark>
    <Placemark>
      <name>Fragment #14</name>
      <description><![CDATA[
        <b>Classification:</b> STRUCTURAL TARGET: FRACTURED AIRFRAME SECTION<br/>
        <b>Intensity:</b> 85.2% Reflection
      ]]></description>
      <styleUrl>#neon_target</styleUrl>
      <Point>
        <altitudeMode>relativeToSeafloor</altitudeMode>
        <coordinates>92.9737,-32.96969,-5020</coordinates>
      </Point>
    </Placemark>
    <Placemark>
      <name>Fragment #15</name>
      <description><![CDATA[
        <b>Classification:</b> STRUCTURAL TARGET: FRACTURED AIRFRAME SECTION<br/>
        <b>Intensity:</b> 83.6% Reflection
      ]]></description>
      <styleUrl>#neon_target</styleUrl>
      <Point>
        <altitudeMode>relativeToSeafloor</altitudeMode>
        <coordinates>92.97326,-32.96428,-5020</coordinates>
      </Point>
    </Placemark>
    <Placemark>
      <name>Fragment #16</name>
      <description><![CDATA[
        <b>Classification:</b> DEBRIS PROFILE: SCATTERED SHEET FRAGMENT<br/>
        <b>Intensity:</b> 80.8% Reflection
      ]]></description>
      <styleUrl>#neon_target</styleUrl>
      <Point>
        <altitudeMode>relativeToSeafloor</altitudeMode>
        <coordinates>92.97158,-32.96359,-5020</coordinates>
      </Point>
    </Placemark>
    <Placemark>
      <name>Fragment #17</name>
      <description><![CDATA[
        <b>Classification:</b> CRITICAL TARGET: HEAVY METALLIC CORE ANOMALY<br/>
        <b>Intensity:</b> 93.5% Reflection
      ]]></description>
      <styleUrl>#neon_target</styleUrl>
      <Point>
        <altitudeMode>relativeToSeafloor</altitudeMode>
        <coordinates>92.97895,-32.96179,-5020</coordinates>
      </Point>
    </Placemark>
    <Placemark>
      <name>Fragment #18</name>
      <description><![CDATA[
        <b>Classification:</b> STRUCTURAL TARGET: FRACTURED AIRFRAME SECTION<br/>
        <b>Intensity:</b> 86.1% Reflection
      ]]></description>
      <styleUrl>#neon_target</styleUrl>
      <Point>
        <altitudeMode>relativeToSeafloor</altitudeMode>
        <coordinates>92.98585,-32.95878,-5020</coordinates>
      </Point>
    </Placemark>
    <Placemark>
      <name>Fragment #19</name>
      <description><![CDATA[
        <b>Classification:</b> DEBRIS PROFILE: SCATTERED SHEET FRAGMENT<br/>
        <b>Intensity:</b> 76.2% Reflection
      ]]></description>
      <styleUrl>#neon_target</styleUrl>
      <Point>
        <altitudeMode>relativeToSeafloor</altitudeMode>
        <coordinates>92.98698,-32.9539,-5020</coordinates>
      </Point>
    </Placemark>
    <Placemark>
      <name>Fragment #20</name>
      <description><![CDATA[
        <b>Classification:</b> DEBRIS PROFILE: SCATTERED SHEET FRAGMENT<br/>
        <b>Intensity:</b> 79.6% Reflection
      ]]></description>
      <styleUrl>#neon_target</styleUrl>
      <Point>
        <altitudeMode>relativeToSeafloor</altitudeMode>
        <coordinates>92.98391,-32.95825,-5020</coordinates>
      </Point>
    </Placemark>
    <Placemark>
      <name>Fragment #21</name>
      <description><![CDATA[
        <b>Classification:</b> DEBRIS PROFILE: SCATTERED SHEET FRAGMENT<br/>
        <b>Intensity:</b> 80.2% Reflection
      ]]></description>
      <styleUrl>#neon_target</styleUrl>
      <Point>
        <altitudeMode>relativeToSeafloor</altitudeMode>
        <coordinates>92.98858,-32.9549,-5020</coordinates>
      </Point>
    </Placemark>
    <Placemark>
      <name>Fragment #22</name>
      <description><![CDATA[
        <b>Classification:</b> CRITICAL TARGET: HEAVY METALLIC CORE ANOMALY<br/>
        <b>Intensity:</b> 90.4% Reflection
      ]]></description>
      <styleUrl>#neon_target</styleUrl>
      <Point>
        <altitudeMode>relativeToSeafloor</altitudeMode>
        <coordinates>92.99747,-32.95116,-5020</coordinates>
      </Point>
    </Placemark>
    <Placemark>
      <name>Fragment #23</name>
      <description><![CDATA[
        <b>Classification:</b> STRUCTURAL TARGET: FRACTURED AIRFRAME SECTION<br/>
        <b>Intensity:</b> 85.4% Reflection
      ]]></description>
      <styleUrl>#neon_target</styleUrl>
      <Point>
        <altitudeMode>relativeToSeafloor</altitudeMode>
        <coordinates>92.99138,-32.94524,-5020</coordinates>
      </Point>
    </Placemark>
    <Placemark>
      <name>Fragment #24</name>
      <description><![CDATA[
        <b>Classification:</b> STRUCTURAL TARGET: FRACTURED AIRFRAME SECTION<br/>
        <b>Intensity:</b> 83.5% Reflection
      ]]></description>
      <styleUrl>#neon_target</styleUrl>
      <Point>
        <altitudeMode>relativeToSeafloor</altitudeMode>
        <coordinates>93.00178,-32.93954,-5020</coordinates>
      </Point>
    </Placemark>
    <Placemark>
      <name>Fragment #25</name>
      <description><![CDATA[
        <b>Classification:</b> CRITICAL TARGET: HEAVY METALLIC CORE ANOMALY<br/>
        <b>Intensity:</b> 89.5% Reflection
      ]]></description>
      <styleUrl>#neon_target</styleUrl>
      <Point>
        <altitudeMode>relativeToSeafloor</altitudeMode>
        <coordinates>92.99811,-32.94396,-5020</coordinates>
      </Point>
    </Placemark>
    <Placemark>
      <name>Fragment #26</name>
      <description><![CDATA[
        <b>Classification:</b> CRITICAL TARGET: HEAVY METALLIC CORE ANOMALY<br/>
        <b>Intensity:</b> 91.0% Reflection
      ]]></description>
      <styleUrl>#neon_target</styleUrl>
      <Point>
        <altitudeMode>relativeToSeafloor</altitudeMode>
        <coordinates>92.99765,-32.9403,-5020</coordinates>
      </Point>
    </Placemark>
    <Placemark>
      <name>Fragment #27</name>
      <description><![CDATA[
        <b>Classification:</b> DEBRIS PROFILE: SCATTERED SHEET FRAGMENT<br/>
        <b>Intensity:</b> 77.4% Reflection
      ]]></description>
      <styleUrl>#neon_target</styleUrl>
      <Point>
        <altitudeMode>relativeToSeafloor</altitudeMode>
        <coordinates>93.00023,-32.92692,-5020</coordinates>
      </Point>
    </Placemark>
    <Placemark>
      <name>Fragment #28</name>
      <description><![CDATA[
        <b>Classification:</b> DEBRIS PROFILE: SCATTERED SHEET FRAGMENT<br/>
        <b>Intensity:</b> 77.1% Reflection
      ]]></description>
      <styleUrl>#neon_target</styleUrl>
      <Point>
        <altitudeMode>relativeToSeafloor</altitudeMode>
        <coordinates>93.00934,-32.93232,-5020</coordinates>
      </Point>
    </Placemark>
    <Placemark>
      <name>Fragment #29</name>
      <description><![CDATA[
        <b>Classification:</b> CRITICAL TARGET: HEAVY METALLIC CORE ANOMALY<br/>
        <b>Intensity:</b> 90.9% Reflection
      ]]></description>
      <styleUrl>#neon_target</styleUrl>
      <Point>
        <altitudeMode>relativeToSeafloor</altitudeMode>
        <coordinates>93.01405,-32.93026,-5020</coordinates>
      </Point>
    </Placemark>
    <Placemark>
      <name>Fragment #30</name>
      <description><![CDATA[
        <b>Classification:</b> CRITICAL TARGET: HEAVY METALLIC CORE ANOMALY<br/>
        <b>Intensity:</b> 93.7% Reflection
      ]]></description>
      <styleUrl>#neon_target</styleUrl>
      <Point>
        <altitudeMode>relativeToSeafloor</altitudeMode>
        <coordinates>93.01283,-32.92858,-5020</coordinates>
      </Point>
    </Placemark>
    <Placemark>
      <name>Fragment #31</name>
      <description><![CDATA[
        <b>Classification:</b> CRITICAL TARGET: HEAVY METALLIC CORE ANOMALY<br/>
        <b>Intensity:</b> 91.4% Reflection
      ]]></description>
      <styleUrl>#neon_target</styleUrl>
      <Point>
        <altitudeMode>relativeToSeafloor</altitudeMode>
        <coordinates>93.01836,-32.92976,-5020</coordinates>
      </Point>
    </Placemark>
    <Placemark>
      <name>Fragment #32</name>
      <description><![CDATA[
        <b>Classification:</b> DEBRIS PROFILE: SCATTERED SHEET FRAGMENT<br/>
        <b>Intensity:</b> 76.9% Reflection
      ]]></description>
      <styleUrl>#neon_target</styleUrl>
      <Point>
        <altitudeMode>relativeToSeafloor</altitudeMode>
        <coordinates>93.01575,-32.92365,-5020</coordinates>
      </Point>
    </Placemark>
    <Placemark>
      <name>Fragment #33</name>
      <description><![CDATA[
        <b>Classification:</b> CRITICAL TARGET: HEAVY METALLIC CORE ANOMALY<br/>
        <b>Intensity:</b> 92.5% Reflection
      ]]></description>
      <styleUrl>#neon_target</styleUrl>
      <Point>
        <altitudeMode>relativeToSeafloor</altitudeMode>
        <coordinates>93.01377,-32.9259,-5020</coordinates>
      </Point>
    </Placemark>
    <Placemark>
      <name>Fragment #34</name>
      <description><![CDATA[
        <b>Classification:</b> CRITICAL TARGET: HEAVY METALLIC CORE ANOMALY<br/>
        <b>Intensity:</b> 91.2% Reflection
      ]]></description>
      <styleUrl>#neon_target</styleUrl>
      <Point>
        <altitudeMode>relativeToSeafloor</altitudeMode>
        <coordinates>93.01701,-32.92107,-5020</coordinates>
      </Point>
    </Placemark>
    <Placemark>
      <name>Fragment #35</name>
      <description><![CDATA[
        <b>Classification:</b> CRITICAL TARGET: HEAVY METALLIC CORE ANOMALY<br/>
        <b>Intensity:</b> 93.1% Reflection
      ]]></description>
      <styleUrl>#neon_target</styleUrl>
      <Point>
        <altitudeMode>relativeToSeafloor</altitudeMode>
        <coordinates>93.02255,-32.91887,-5020</coordinates>
      </Point>
    </Placemark>
    <Placemark>
      <name>Fragment #36</name>
      <description><![CDATA[
        <b>Classification:</b> DEBRIS PROFILE: SCATTERED SHEET FRAGMENT<br/>
        <b>Intensity:</b> 76.6% Reflection
      ]]></description>
      <styleUrl>#neon_target</styleUrl>
      <Point>
        <altitudeMode>relativeToSeafloor</altitudeMode>
        <coordinates>93.01611,-32.92154,-5020</coordinates>
      </Point>
    </Placemark>
    <Placemark>
      <name>Fragment #37</name>
      <description><![CDATA[
        <b>Classification:</b> CRITICAL TARGET: HEAVY METALLIC CORE ANOMALY<br/>
        <b>Intensity:</b> 91.2% Reflection
      ]]></description>
      <styleUrl>#neon_target</styleUrl>
      <Point>
        <altitudeMode>relativeToSeafloor</altitudeMode>
        <coordinates>93.02524,-32.91585,-5020</coordinates>
      </Point>
    </Placemark>
    <Placemark>
      <name>Fragment #38</name>
      <description><![CDATA[
        <b>Classification:</b> STRUCTURAL TARGET: FRACTURED AIRFRAME SECTION<br/>
        <b>Intensity:</b> 84.5% Reflection
      ]]></description>
      <styleUrl>#neon_target</styleUrl>
      <Point>
        <altitudeMode>relativeToSeafloor</altitudeMode>
        <coordinates>93.03008,-32.91328,-5020</coordinates>
      </Point>
    </Placemark>
  </Document>
</kml>
